OBJECT_NAME,OBJECT_ID,EPOCH,MEAN_MOTION,ECCENTRICITY,INCLINATION,RA_OF_ASC_NODE,ARG_OF_PERICENTER,MEAN_ANOMALY,EPHEMERIS_TYPE,CLASSIFICATION_TYPE,NORAD_CAT_ID,ELEMENT_SET_NO,REV_AT_EPOCH,BSTAR,MEAN_MOTION_DOT,MEAN_MOTION_DDOT
ONEWEB-0559,2023-043Q,2026-06-03T06:39:00.265824,13.21826587,.00017908,87.9258,246.7402,102.5011,257.6324,0,U,56060,999,15641,.26469121E-3,.122E-5,0
ONEWEB-0566,2023-043R,2026-06-03T15:34:20.980416,13.21826032,.00016953,87.9258,246.6645,104.8205,255.3116,0,U,56061,999,15644,.48821757E-4,.33E-6,0
ONEWEB-0568,2023-043S,2026-06-03T15:15:04.963104,13.16593264,.0002374,87.9105,231.4622,102.5521,257.5875,0,U,56062,999,15719,-.23885E-4,.4E-7,0
ONEWEB-0574,2023-043T,2026-06-03T15:24:38.786976,13.21826819,.00021498,87.9268,246.6676,95.3399,264.7980,0,U,56063,999,15648,-.52038126E-4,-.8E-7,0
ONEWEB-0575,2023-043U,2026-06-03T15:05:57.786720,13.16593570,.0002447,87.9102,231.4596,92.3346,267.8065,0,U,56064,999,15718,-.15894E-3,-.48E-6,0
ONEWEB-0576,2023-043V,2026-06-03T14:38:35.517984,13.16593459,.00022403,87.9108,231.4704,95.9159,264.2227,0,U,56065,999,15717,.3287139E-5,.14E-6,0
ONEWEB-0577,2023-043W,2026-06-03T14:47:42.964800,13.16593010,.0002612,87.9106,231.4668,85.2698,274.8731,0,U,56066,999,15720,-.17097E-4,.6E-7,0
ONEWEB-0578,2023-043X,2026-06-03T15:05:17.386944,13.21825725,.0002321,87.9260,246.6694,102.7537,257.3856,0,U,56067,999,15644,.44776E-4,.32E-6,0
ONEWEB-0579,2023-043Y,2026-06-03T14:53:10.725792,13.21825581,.0001742,87.9268,246.6673,96.4524,263.6808,0,U,56068,999,15645,.91904E-5,.17E-6,0
ONEWEB-0581,2023-043Z,2026-06-03T05:49:39.151200,13.16595330,.0002398,87.9104,231.5525,87.4661,272.6744,0,U,56069,999,15712,-.15428E-3,-.46E-6,0
ONEWEB-0609,2023-043AA,2026-06-04T00:33:47.175552,13.15547504,.00018966,87.8995,261.8342,102.0862,258.0481,0,U,56070,999,15470,.54784705E-4,.33E-6,0
ONEWEB-0613,2023-043AB,2026-06-03T08:04:39.613440,13.15549283,.00016741,87.8999,261.9833,99.0444,261.0876,0,U,56071,999,15461,-.13550718E-3,-.38E-6,0
ONEWEB-0630,2023-043AC,2026-06-03T07:57:48.110112,13.15549835,.00016967,87.9004,261.9555,105.0234,255.1084,0,U,56072,999,15460,-.25951401E-3,-.85E-6,0
ONEWEB-0632,2023-043AD,2026-06-03T07:50:58.370208,13.15547825,.00019874,87.8996,261.9740,93.7375,266.3982,0,U,56073,999,15460,-.41913597E-3,-.145E-5,0
ONEWEB-0633,2023-043AE,2026-06-03T07:41:49.137504,13.15549828,.00015857,87.9009,261.9503,108.8519,251.2783,0,U,56074,999,15458,-.2806267E-3,-.93E-6,0
ONEWEB-0634,2023-043AF,2026-06-03T07:21:18.633888,13.15547717,.0002136,87.9002,261.9946,108.4716,251.6646,0,U,56075,999,15457,.12848012E-3,.61E-6,0
ONEWEB-0635,2023-043AG,2026-06-04T16:05:52.306656,13.15549519,.0002043,87.9008,261.6839,93.8779,266.2585,0,U,56076,999,15478,.17447E-3,.79E-6,0
ONEWEB-0636,2023-043AH,2026-06-03T07:03:04.019328,13.15547674,.00020509,87.8997,261.9658,98.2884,261.8479,0,U,56077,999,15458,.34031325E-3,.141E-5,0
ONEWEB-0637,2023-043AJ,2026-06-03T06:53:56.431680,13.15547799,.00022626,87.8999,261.9837,101.7440,258.3945,0,U,56078,999,15460,.38974245E-3,.16E-5,0
ONEWEB-0647,2023-043AK,2026-06-03T06:47:05.815680,13.15547333,.00018132,87.9004,261.9966,97.4416,262.6921,0,U,56079,999,15459,.31440588E-3,.131E-5,0
ONEWEB-0651,2023-043AL,2026-06-04T06:24:02.415168,13.15548271,.00021537,87.8997,261.7950,97.0859,263.0517,0,U,56080,999,15592,.31706005E-3,.132E-5,0
ONEWEB-0718,2023-043AM,2026-06-03T06:33:23.368032,13.15550601,.00020657,87.9003,261.9727,113.2943,246.8405,0,U,56081,999,15460,.10350113E-3,.52E-6,0
ONEWEB-0561,2023-068A,2026-06-03T08:01:12.233568,13.20769706,.00018952,87.9185,277.2044,92.5488,267.5862,0,U,56710,999,14767,.5128072E-5,.15E-6,0
ONEWEB-0668,2023-068B,2026-06-03T14:20:21.511680,13.16593218,.00025107,87.9109,231.4703,109.0956,251.0447,0,U,56711,999,14999,.1858178E-3,.84E-6,0
ONEWEB-0676,2023-068C,2026-06-04T03:17:47.727744,13.16596441,.00022086,87.9107,231.3688,89.6979,270.4405,0,U,56712,999,14998,.38546394E-3,.16E-5,0
ONEWEB-0677,2023-068D,2026-06-03T07:44:13.550784,13.20772151,.00024017,87.9190,277.1983,104.3277,255.8123,0,U,56713,999,14797,.14424606E-4,.19E-6,0
ONEWEB-0678,2023-068E,2026-06-03T07:37:16.559328,13.15547540,.00016987,87.9010,261.9553,97.3953,262.7370,0,U,56714,999,14746,-.25113713E-3,-.82E-6,0
ONEWEB-0679,2023-068F,2026-06-03T15:21:54.971712,13.16593805,.00026461,87.9106,231.4598,98.9249,261.2182,0,U,56715,999,14994,.66154379E-4,.38E-6,0
ONEWEB-0680,2023-068G,2026-06-03T14:55:35.432832,13.21827825,.0002585,87.9272,246.6694,107.1611,252.9806,0,U,56716,999,14930,.21768E-3,.103E-5,0
ONEWEB-0681,2023-068H,2026-06-04T15:53:46.118112,13.21825935,.0002491,87.9259,246.4633,79.5819,280.5596,0,U,56717,999,14943,.84069E-4,.48E-6,0
ONEWEB-0682,2023-068J,2026-06-03T06:21:59.656320,13.15547319,.00024085,87.9005,261.9667,107.0078,253.1317,0,U,56718,999,14762,-.59542202E-4,-.1E-6,0
ONEWEB-0683,2023-068K,2026-06-03T06:56:13.411104,13.15548032,.00020994,87.9010,261.9608,108.0515,252.0844,0,U,56719,999,14759,.42324043E-3,.172E-5,0
ONEWEB-0684,2023-068L,2026-06-04T15:59:01.503168,13.15548140,.0000694,87.9008,261.6774,130.1903,229.9288,0,U,56720,999,14760,.41573E-3,.169E-5,0
ONEWEB-0686,2023-068M,2026-06-04T15:57:01.472832,13.16594194,.0002035,87.9081,231.2826,111.7504,248.3844,0,U,56721,999,15006,.34351E-3,.144E-5,0
ONEWEB-0694,2023-068N,2026-06-04T16:06:08.498016,13.16594328,.0002469,87.9110,231.2413,107.1104,253.0297,0,U,56722,999,15012,.17157E-3,.78E-6,0
ONEWEB-0696,2023-068P,2026-06-03T07:55:33.193056,13.15549819,.00015253,87.8998,261.9828,96.4910,263.6394,0,U,56723,999,14754,-.20438406E-3,-.64E-6,0
ONEWEB-0703,2023-068Q,2026-06-03T08:09:13.713120,13.15548174,.00016359,87.9001,261.9617,69.6664,290.4642,0,U,56724,999,14743,.19172223E-3,.85E-6,0
ONEWEB-0721,2023-068R,2026-06-03T07:03:44.222112,13.22468270,.00019659,86.6763,89.9494,78.8050,281.3304,0,U,56725,999,15610,.18340634E-3,.91E-6,0
ONEWEB-0015,2024-188A,2026-06-04T02:38:34.189152,13.11415409,.00023473,87.8897,23.6957,78.9309,281.2082,0,U,61594,999,8274,-.70534909E-3,-.237E-5,0
ONEWEB-0687,2024-188B,2026-06-04T02:15:05.890752,13.17650844,.00023271,87.9135,8.4818,91.5540,268.5858,0,U,61595,999,8417,.50615556E-4,.33E-6,0
ONEWEB-0688,2024-188C,2026-06-04T02:56:24.378432,13.17647468,.00030083,87.9140,8.4759,76.9445,283.2022,0,U,61596,999,8417,-.11959983E-3,-.34E-6,0
ONEWEB-0689,2024-188D,2026-06-04T16:16:28.640064,13.11419414,.0001906,87.8911,23.5395,92.9237,267.2109,0,U,61597,999,8281,-.83829E-4,-.17E-6,0
ONEWEB-0690,2024-188E,2026-06-04T01:52:12.015840,13.11419063,.00015882,87.8911,23.6704,60.3039,299.8247,0,U,61598,999,8291,.12910138E-2,.47E-5,0
ONEWEB-0691,2024-188F,2026-06-04T01:44:52.489536,13.11418017,.0002197,87.8918,23.5793,83.2212,276.9166,0,U,61599,999,8276,.10022437E-2,.368E-5,0
ONEWEB-0692,2024-188G,2026-06-04T02:14:10.062528,13.11416591,.00013642,87.8895,23.6913,109.2708,250.8568,0,U,61600,999,8275,.13098247E-2,.477E-5,0
ONEWEB-0693,2024-188H,2026-06-04T01:24:03.631104,13.17651638,.00017456,87.9134,8.5095,62.6349,297.4960,0,U,61601,999,8415,.56337654E-4,.35E-6,0
ONEWEB-0695,2024-188J,2026-06-04T16:18:54.863424,13.11418515,.0001751,87.8902,23.5663,102.6795,257.4528,0,U,61602,999,8282,.28132E-4,.23E-6,0
ONEWEB-0697,2024-188K,2026-06-04T02:26:22.204032,13.11415973,.00012936,87.8893,23.6719,109.4599,250.6669,0,U,61603,999,8273,.50070249E-3,.19E-5,0
ONEWEB-0698,2024-188L,2026-06-04T01:54:37.859904,13.11418669,.00006544,87.8895,23.6905,69.2187,290.9011,0,U,61604,999,8275,.15084723E-2,.547E-5,0
ONEWEB-0699,2024-188M,2026-06-03T14:58:21.935136,13.10371143,.00012287,87.8837,38.9668,91.3323,268.7945,0,U,61605,999,8153,-.16884929E-2,-.577E-5,0
ONEWEB-0700,2024-188N,2026-06-03T15:00:45.247680,13.10371847,.00015581,87.8861,38.8733,101.6649,258.4653,0,U,61606,999,8152,-.18284224E-2,-.626E-5,0
ONEWEB-0701,2024-188P,2026-06-04T02:24:23.359968,13.10376208,.0001081,87.8850,38.8700,91.6562,268.4689,0,U,61607,999,8159,-.13050705E-2,-.443E-5,0
ONEWEB-0702,2024-188Q,2026-06-04T03:00:33.066144,13.11417727,.00013779,87.8918,23.5840,114.7315,245.3956,0,U,61608,999,8277,-.16847567E-2,-.584E-5,0
ONEWEB-0704,2024-188R,2026-06-04T02:07:39.499104,13.10372939,.00016755,87.8856,38.8614,118.8567,241.2729,0,U,61609,999,8157,-.22163089E-2,-.761E-5,0
ONEWEB-0705,2024-188S,2026-06-04T02:14:48.926112,13.10373783,.0002404,87.8854,38.8667,106.1045,254.0347,0,U,61610,999,7374,-.18177058E-2,-.622E-5,0
ONEWEB-0706,2024-188T,2026-06-04T01:53:19.133952,13.10370181,.00017469,87.8842,38.8761,99.0984,261.0341,0,U,61611,999,8166,-.10139776E-2,-.341E-5,0
ONEWEB-0707,2024-188U,2026-06-04T02:02:52.341792,13.10371835,.00016884,87.8851,38.8680,102.9792,257.1524,0,U,61612,999,8160,-.15142219E-2,-.516E-5,0
ONEWEB-0708,2024-188V,2026-06-04T02:29:10.429152,13.10377775,.00022733,87.8854,38.8830,90.8142,269.3246,0,U,61613,999,8158,-.43974181E-3,-.141E-5,0
